NORAD_CAT_ID,OBJECT_NAME,OBJECT_TYPE,EPOCH,MEAN_MOTION,ECCENTRICITY,INCLINATION,RA_OF_ASC_NODE,ARG_OF_PERICENTER,MEAN_ANOMALY,BSTAR,MEAN_MOTION_DOT,MEAN_MOTION_DDOT,TLE_LINE0,TLE_LINE1,TLE_LINE2,SEMIMAJOR_AXIS,PERIOD,APOGEE,PERIGEE,DECAYED
51891.0,STARLINK-3549,PAYLOAD,2023-11-12 00:14:32,15.08831087,0.0001508,53.2176,208.9944,101.969,258.1471,-2.8129e-05,-7.35e-06,0.0,0 STARLINK-3549,1 51891U 22022AR  23316.01009926 -.00000735  00000-0 -28129-4 0  9997,2 51891  53.2176 208.9944 0001508 101.9690 258.1471 15.08831087 95177,6917.908,95.438,540.816,538.729,0.0
51891.0,STARLINK-3549,PAYLOAD,2023-11-12 09:46:51,15.08836643,0.0001515,53.2182,207.2103,99.1122,261.0041,-2.0725e-06,-3.21e-06,0.0,0 STARLINK-3549,1 51891U 22022AR  23316.40753598 -.00000321  00000-0 -20725-5 0  9997,2 51891  53.2182 207.2103 0001515  99.1122 261.0041 15.08836643 95235,6917.891,95.438,540.804,538.708,0.0
51891.0,STARLINK-3549,PAYLOAD,2023-11-12 22:29:56,15.08841398,0.0001584,53.2182,204.8315,106.3695,253.7471,2.5803e-05,1.23e-06,0.0,0 STARLINK-3549,1 51891U 22022AR  23316.93745449  .00000123  00000-0  25803-4 0  9990,2 51891  53.2182 204.8315 0001584 106.3695 253.7471 15.08841398 95312,6917.876,95.437,540.837,538.645,0.0
51891.0,STARLINK-3549,PAYLOAD,2023-11-13 01:40:42,15.08845687,0.0001529,53.2178,204.2355,98.6858,261.4307,5.1836e-05,5.37e-06,0.0,0 STARLINK-3549,1 51891U 22022AR  23317.06993099  .00000537  00000-0  51836-4 0  9995,2 51891  53.2178 204.2355 0001529  98.6858 261.4307 15.08845687 95339,6917.863,95.437,540.786,538.67,0.0
51891.0,STARLINK-3549,PAYLOAD,2023-11-13 09:37:38,15.08839052,0.0001542,53.2172,202.7479,98.7977,261.3189,3.368e-05,2.48e-06,0.0,0 STARLINK-3549,1 51891U 22022AR  23317.40113527  .00000248  00000-0  33680-4 0  9999,2 51891  53.2172 202.7479 0001542  98.7977 261.3189 15.08839052 95382,6917.883,95.438,540.815,538.682,0.0
51891.0,STARLINK-3549,PAYLOAD,2023-11-14 09:28:25,15.08834487,0.0001689,53.2177,198.2879,88.4258,271.6927,1.4813e-05,-5.2e-07,0.0,0 STARLINK-3549,1 51891U 22022AR  23318.39474079 -.00000052  00000-0  14813-4 0  9991,2 51891  53.2177 198.2879 0001689  88.4258 271.6927 15.08834487 95538,6917.897,95.438,540.931,538.594,0.0
51891.0,STARLINK-3549,PAYLOAD,2023-11-14 22:11:30,15.08836147,0.0001551,53.2179,195.9089,87.8255,272.2914,4.053e-07,-2.82e-06,0.0,0 STARLINK-3549,1 51891U 22022AR  23318.92466075 -.00000282  00000-0  40530-6 0  9999,2 51891  53.2179 195.9089 0001551  87.8255 272.2914 15.08836147 95612,6917.892,95.438,540.83,538.684,0.0
51891.0,STARLINK-3549,PAYLOAD,2023-11-15 01:22:19,15.0880703,0.0001652,53.2181,195.3126,92.8917,267.2264,-0.00029952,-5.047e-05,0.0,0 STARLINK-3549,1 51891U 22022AR  23319.05716692 -.00005047  00000-0 -29952-3 0  9994,2 51891  53.2181 195.3126 0001652  92.8917 267.2264 15.08807030 95637,6917.981,95.44,540.989,538.703,0.0
51891.0,STARLINK-3549,PAYLOAD,2023-11-15 18:51:30,15.08841895,0.000116,53.2184,192.0412,94.8642,265.2482,2.0321e-05,3.6e-07,0.0,0 STARLINK-3549,1 51891U 22022AR  23319.78577320  .00000036  00000-0  20321-4 0  9990,2 51891  53.2184 192.0412 0001160  94.8642 265.2482 15.08841895 95742,6917.875,95.437,540.542,538.937,0.0
51891.0,STARLINK-3549,PAYLOAD,2023-11-15 22:02:17,15.08841955,0.0001186,53.2186,191.4464,93.392,266.7208,2.4038e-05,9.5e-07,0.0,0 STARLINK-3549,1 51891U 22022AR  23319.91825378  .00000095  00000-0  24038-4 0  9998,2 51891  53.2186 191.4464 0001186  93.3920 266.7208 15.08841955 95766,6917.874,95.437,540.56,538.919,0.0
51891.0,STARLINK-3549,PAYLOAD,2023-11-16 01:13:02,15.08850066,0.0001344,53.2177,190.8499,107.0519,253.0621,4.2724e-05,3.92e-06,0.0,0 STARLINK-3549,1 51891U 22022AR  23320.05072740  .00000392  00000-0  42724-4 0  9994,2 51891  53.2177 190.8499 0001344 107.0519 253.0621 15.08850066 95783,6917.85,95.437,540.644,538.785,0.0
51891.0,STARLINK-3549,PAYLOAD,2023-11-16 15:31:32,15.08838459,0.0002017,53.2165,188.1775,85.6612,274.4611,7.3977e-06,-1.7e-06,0.0,0 STARLINK-3549,1 51891U 22022AR  23320.64689861 -.00000170  00000-0  73977-5 0  9997,2 51891  53.2165 188.1775 0002017  85.6612 274.4611 15.08838459 95878,6917.885,95.438,541.145,538.355,0.0
51891.0,STARLINK-3549,PAYLOAD,2023-11-16 21:53:04,15.08839637,0.0002053,53.2162,186.9879,86.4624,273.6603,6.4084e-06,-1.86e-06,0.0,0 STARLINK-3549,1 51891U 22022AR  23320.91185785 -.00000186  00000-0  64084-5 0  9999,2 51891  53.2162 186.9879 0002053  86.4624 273.6603 15.08839637 95914,6917.881,95.438,541.167,538.326,0.0
51891.0,STARLINK-3549,PAYLOAD,2023-11-17 01:03:50,15.0886892,0.0001371,53.2169,186.3926,100.9987,259.116,-0.00040842,-6.787e-05,0.0,0 STARLINK-3549,1 51891U 22022AR  23321.04433483 -.00006787  00000-0 -40842-3 0  9993,2 51891  53.2169 186.3926 0001371 100.9987 259.1160 15.08868920 95930,6917.792,95.436,540.605,538.709,0.0
51891.0,STARLINK-3549,PAYLOAD,2023-11-17 21:43:51,15.08848827,0.0001652,53.2154,182.5262,88.9102,271.208,-8.1641e-05,-1.587e-05,0.0,0 STARLINK-3549,1 51891U 22022AR  23321.90545455 -.00001587  00000-0 -81641-4 0  9997,2 51891  53.2154 182.5262 0001652  88.9102 271.2080 15.08848827 96066,6917.853,95.437,540.861,538.576,0.0
51891.0,STARLINK-3549,PAYLOAD,2023-11-18 07:16:10,15.08836842,0.0001603,53.2158,180.7423,86.4346,273.6829,1.3889e-06,-2.66e-06,0.0,0 STARLINK-3549,1 51891U 22022AR  23322.30289859 -.00000266  00000-0  13889-5 0  9997,2 51891  53.2158 180.7423 0001603  86.4346 273.6829 15.08836842 96126,6917.89,95.438,540.864,538.646,0.0
51891.0,STARLINK-3549,PAYLOAD,2023-11-18 21:34:38,15.08838758,0.0001496,53.2177,178.0663,84.7336,275.3827,2.4612e-05,1.04e-06,0.0,0 STARLINK-3549,1 51891U 22022AR  23322.89905715  .00000104  00000-0  24612-4 0  9992,2 51891  53.2177 178.0663 0001496  84.7336 275.3827 15.08838758 96218,6917.884,95.438,540.784,538.714,0.0
51891.0,STARLINK-3549,PAYLOAD,2023-11-19 00:45:24,15.08838957,0.0001502,53.2174,177.4716,84.6071,275.5093,2.6271e-05,1.3e-06,0.0,0 STARLINK-3549,1 51891U 22022AR  23323.03153700  .00000130  00000-0  26271-4 0  9990,2 51891  53.2174 177.4716 0001502  84.6071 275.5093 15.08838957 96230,6917.884,95.438,540.788,538.71,0.0
51891.0,STARLINK-3549,PAYLOAD,2023-11-19 19:50:02,15.08836294,0.00015,53.2173,173.9032,84.5331,275.5832,1.2968e-05,-8.2e-07,0.0,0 STARLINK-3549,1 51891U 22022AR  23323.82641996 -.00000082  00000-0  12968-4 0  9991,2 51891  53.2173 173.9032 0001500  84.5331 275.5832 15.08836294 96353,6917.892,95.438,540.794,538.719,0.0
51891.0,STARLINK-3549,PAYLOAD,2023-11-19 21:25:25,15.0884077,0.0001138,53.2142,173.6046,79.8688,280.2432,2.6432e-06,-2.46e-06,0.0,0 STARLINK-3549,1 51891U 22022AR  23323.89265701 -.00000246  00000-0  26432-5 0  9998,2 51891  53.2142 173.6046 0001138  79.8688 280.2432 15.08840770 96364,6917.878,95.438,540.53,538.956,0.0
51891.0,STARLINK-3549,PAYLOAD,2023-11-20 06:57:44,15.08836326,0.0001451,53.2154,171.8212,87.6275,272.4883,1.2317e-05,-9.2e-07,0.0,0 STARLINK-3549,1 51891U 22022AR  23324.29009972 -.00000092  00000-0  12317-4 0  9994,2 51891  53.2154 171.8212 0001451  87.6275 272.4883 15.08836326 96421,6917.892,95.438,540.76,538.753,0.0
51891.0,STARLINK-3549,PAYLOAD,2023-11-20 21:16:13,15.08836299,0.0001439,53.2155,169.1452,88.1193,271.9964,-5.012e-06,-3.68e-06,0.0,0 STARLINK-3549,1 51891U 22022AR  23324.88626165 -.00000368  00000-0 -50120-5 0  9990,2 51891  53.2155 169.1452 0001439  88.1193 271.9964 15.08836299 96512,6917.892,95.438,540.752,538.761,0.0
51891.0,STARLINK-3549,PAYLOAD,2023-11-20 22:51:36,15.08837519,0.0001443,53.2154,168.8478,87.8882,272.2275,5.1658e-06,-2.06e-06,0.0,0 STARLINK-3549,1 51891U 22022AR  23324.95250063 -.00000206  00000-0  51658-5 0  9995,2 51891  53.2154 168.8478 0001443  87.8882 272.2275 15.08837519 96527,6917.888,95.438,540.751,538.755,0.0
51891.0,STARLINK-3549,PAYLOAD,2023-11-21 06:48:31,15.08836538,0.0001439,53.2153,167.3608,88.164,271.9517,1.0554e-05,-1.2e-06,0.0,0 STARLINK-3549,1 51891U 22022AR  23325.28370168 -.00000120  00000-0  10554-4 0  9995,2 51891  53.2153 167.3608 0001439  88.1640 271.9517 15.08836538 96576,6917.891,95.438,540.751,538.76,0.0
51891.0,STARLINK-3549,PAYLOAD,2023-11-21 21:06:59,15.08841236,0.0001424,53.2154,164.6844,88.6509,271.4646,1.8115e-05,0.0,0.0,0 STARLINK-3549,1 51891U 22022AR  23325.87985955  .00000000  00000-0  18115-4 0  9993,2 51891  53.2154 164.6844 0001424  88.6509 271.4646 15.08841236 96661,6917.877,95.437,540.727,538.757,0.0
51891.0,STARLINK-3549,PAYLOAD,2023-11-22 13:00:51,15.08839618,0.0001464,53.2156,161.7108,87.875,272.241,4.3478e-05,4.04e-06,0.0,0 STARLINK-3549,1 51891U 22022AR  23326.54225992  .00000404  00000-0  43478-4 0  9994,2 51891  53.2156 161.7108 0001464  87.8750 272.2410 15.08839618 96767,6917.882,95.438,540.759,538.734,0.0
51891.0,STARLINK-3549,PAYLOAD,2023-11-22 19:22:23,15.08842034,0.0001407,53.2154,160.521,88.8481,271.2672,6.2953e-05,7.14e-06,0.0,0 STARLINK-3549,1 51891U 22022AR  23326.80721760  .00000714  00000-0  62953-4 0  9990,2 51891  53.2154 160.5210 0001407  88.8481 271.2672 15.08842034 96805,6917.874,95.437,540.713,538.766,0.0
51891.0,STARLINK-3549,PAYLOAD,2023-11-23 19:13:11,15.0883816,0.0001447,53.2153,156.0621,85.8575,274.2583,9.666e-07,-2.73e-06,0.0,0 STARLINK-3549,1 51891U 22022AR  23327.80082305 -.00000273  00000-0  96660-6 0  9991,2 51891  53.2153 156.0621 0001447  85.8575 274.2583 15.08838160 96950,6917.886,95.438,540.752,538.75,0.0
51891.0,STARLINK-3549,PAYLOAD,2023-11-23 22:23:57,15.08839663,0.0001418,53.2151,155.4667,88.9688,271.1467,1.3489e-05,-7.3e-07,0.0,0 STARLINK-3549,1 51891U 22022AR  23327.93330146 -.00000073  00000-0  13489-4 0  9998,2 51891  53.2151 155.4667 0001418  88.9688 271.1467 15.08839663 96976,6917.881,95.438,540.727,538.765,0.0
51891.0,STARLINK-3549,PAYLOAD,2023-11-24 12:42:25,15.08837245,0.0001472,53.2152,152.7897,97.6757,262.4403,3.1374e-06,-2.38e-06,0.0,0 STARLINK-3549,1 51891U 22022AR  23328.52946371 -.00000238  00000-0  31374-5 0  9994,2 51891  53.2152 152.7897 0001472  97.6757 262.4403 15.08837245 97064,6917.889,95.438,540.772,538.735,0.0
